{
    "links": {
        "self": "http://www.neowsapp.com/rest/v1/neo/3576730?api_key=iIulBulltgU6a56xZRHN4H3l9WmuAYTsLGpBGhQ2"
    },
    "id": "3576730",
    "neo_reference_id": "3576730",
    "name": "(2011 OC57)",
    "designation": "2011 OC57",
    "nasa_jpl_url": "http://ssd.jpl.nasa.gov/sbdb.cgi?sstr=3576730",
    "absolute_magnitude_h": 24.5,
    "estimated_diameter": {
        "kilometers": {
            "estimated_diameter_min": 0.0334622374,
            "estimated_diameter_max": 0.0748238376
        },
        "meters": {
            "estimated_diameter_min": 33.4622374455,
            "estimated_diameter_max": 74.8238376074
        },
        "miles": {
            "estimated_diameter_min": 0.0207924639,
            "estimated_diameter_max": 0.0464933628
        },
        "feet": {
            "estimated_diameter_min": 109.7842471007,
            "estimated_diameter_max": 245.4850393757
        }
    },
    "is_potentially_hazardous_asteroid": false,
    "close_approach_data": [
        {
            "close_approach_date": "2011-08-07",
            "close_approach_date_full": "2011-Aug-07 01:05",
            "epoch_date_close_approach": 1312679100000,
            "relative_velocity": {
                "kilometers_per_second": "5.3633121585",
                "kilometers_per_hour": "19307.9237704459",
                "miles_per_hour": "11997.1929672529"
            },
            "miss_distance": {
                "astronomical": "0.1528496803",
                "lunar": "59.4585256367",
                "kilometers": "22865986.603060961",
                "miles": "14208265.2291288218"
            },
            "orbiting_body": "Earth"
        }
    ],
    "orbital_data": {
        "orbit_id": "5",
        "orbit_determination_date": "2017-04-06 08:53:02",
        "first_observation_date": "2011-07-26",
        "last_observation_date": "2011-08-26",
        "data_arc_in_days": 31,
        "observations_used": 9,
        "orbit_uncertainty": "8",
        "minimum_orbit_intersection": ".148651",
        "jupiter_tisserand_invariant": "3.583",
        "epoch_osculation": "2455783.5",
        "eccentricity": ".4522658382299443",
        "semi_major_axis": "2.122532656007063",
        "inclination": "6.491337444125261",
        "ascending_node_longitude": "316.0153218129318",
        "orbital_period": "1129.483778475021",
        "perihelion_distance": "1.162583645167599",
        "perihelion_argument": ".7121851752362047",
        "aphelion_distance": "3.082481666846528",
        "perihelion_time": "2455781.312020187920",
        "mean_anomaly": ".6973740989997047",
        "mean_motion": ".3187296770973161",
        "equinox": "J2000",
        "orbit_class": {
            "orbit_class_type": "AMO",
            "orbit_class_description": "Near-Earth asteroid orbits similar to that of 1221 Amor",
            "orbit_class_range": "1.017 AU < q (perihelion) < 1.3 AU"
        }
    },
    "is_sentry_object": false
}